NUSAT-1 (FRESCO)        
1 41557U 16033B   22229.25306453  .00010866  00000+0  31245-3 0  9998
2 41557  97.3906 327.1120 0011352 153.4109 286.3059 15.35915065346713
BEESAT-4                
1 41619U 16040W   22228.40923389  .00011237  00000+0  36006-3 0  9997
2 41619  97.2116 277.4791 0007457 257.2421 102.7988 15.32499999329900
CAS-2T & KS-1Q          
1 41847U 16066G   22228.43502185  .00000578  00000+0  95946-4 0  9993
2 41847  98.5471 293.0277 0363976  30.6271 331.5623 14.38691548302976
NAYIF-1 (EO-88)         
1 42017U 17008BX  22229.17178046  .00012720  00000+0  36163-3 0  9994
2 42017  97.2640 294.4606 0005398  45.9977 314.1711 15.36273048306399
ZHUHAI-1 02 (CAS-4B)    
1 42759U 17034B   22229.28200534  .00003304  00000+0  20026-3 0  9995
2 42759  43.0184 357.3201 0010700 310.7500 129.2978 15.12264279285567
ZHUHAI-1 01 (CAS-4A)    
1 42761U 17034D   22229.38344637  .00003085  00000+0  18742-3 0  9990
2 42761  43.0189 355.5035 0010865 313.4952 143.6027 15.12349542285587
MAX VALIER SAT          
1 42778U 17036P   22229.11901056  .00007245  00000+0  26880-3 0  9999
2 42778  97.2008 268.1539 0012589 108.9754 251.2851 15.27807311286161
RADFXSAT (FOX-1B)       
1 43017U 17073E   22228.68234443  .00004096  00000+0  30887-3 0  9990
2 43017  97.6666 120.4018 0247185 350.9645   8.7159 14.81802481256035
FOX-1D (AO-92)          
1 43137U 18004AC  22229.18559570  .00007536  00000+0  25907-3 0  9994
2 43137  97.3648 303.8261 0008685 138.7796 221.4102 15.30345329255625
DIWATA-2B               
1 43678U 18084H   22229.26905204  .00000864  00000+0  90412-4 0  9991
2 43678  97.9786   3.2763 0011278  85.3588 274.8976 14.92256365206928
ES'HAIL 2               
1 43700U 18090A   22225.69538810  .00000125  00000+0  00000+0 0  9991
2 43700   0.0248 117.5015 0001982  65.4695  55.2441  1.00268968 13606
FOX-1CLIFF (AO-95)      
1 43770U 18099N   22229.16690870  .00001667  00000+0  15078-3 0  9995
2 43770  97.6167 293.9374 0015343  73.9589 286.3321 14.96675592202095
ITASAT 1                
1 43786U 18099AE  22228.82067807  .00001360  00000+0  12349-3 0  9990
2 43786  97.6200 294.5509 0016299  68.3159 291.9796 14.96792048202082
JY1SAT (JO-97)          
1 43803U 18099AX  22229.15157557  .00001825  00000+0  16177-3 0  9998
2 43803  97.6162 294.6472 0016226  66.5730 293.7196 14.97344374202152
UWE-4                   
1 43880U 18111E   22228.70672266  .00001883  00000+0  16234-3 0  9995
2 43880  97.6634 133.9628 0013409 112.5172 247.7471 14.98428367198729
NEXUS (FO-99)           
1 43937U 19003F   22229.07125496  .00010216  00000+0  33204-3 0  9994
2 43937  97.1266 260.1013 0017987 298.9486  60.9953 15.31933361199253
PSAT2 (NO-104)          
1 44354U 19036R   22229.00969158  .00044105 -60847-5  34909-3 0  9997
2 44354  28.5250 116.6206 0210804 296.6354  61.2798 15.45384781174030
JAISAT-1                
1 44419U 19038F   22228.69694870  .00006200  00000+0  30629-3 0  9998
2 44419  97.6404 199.3523 0016915 284.4337  75.5019 15.18111403172191
DUCHIFAT-3              
1 44854U 19089C   22228.98904166  .00002797  00000+0  21864-3 0  9999
2 44854  36.9658 101.3766 0009031 344.2709 143.6699 15.01399481147034
CAS-6 (TIANQIN 1)       
1 44881U 19093C   22229.08416665  .00000407  00000+0  58139-4 0  9990
2 44881  97.8915 307.4201 0014844 354.7005   5.4043 14.81785505143758
RS-44 & BREEZE-KM R/B   
1 44909U 19096E   22228.86047488  .00000012  00000+0  11679-5 0  9993
2 44909  82.5226 190.1450 0217312 178.1913 182.0025 12.79714223123236
ORBITAL FACTORY 2 (OF-2)
1 45113U 19071C   22228.71331178  .00026053  00000+0  49433-3 0  9990
2 45113  51.6369 122.2776 0009155  42.0567 318.1122 15.48087004142706
HUSKYSAT-1 (HO-107)     
1 45119U 19071J   22228.43828630  .00020707  00000+0  41265-3 0  9994
2 45119  51.6372 124.1616 0009112  36.6626 323.4983 15.46811419142648
BY70-2                  
1 45857U 20042B   22229.13358198  .00005066  00000+0  66918-3 0  9991
2 45857  97.9538 305.4163 0008655 278.4934  81.5273 14.80425886114430
SALSAT                  
1 46495U 20068K   22228.81456008  .00001315  00000+0  97552-4 0  9993
2 46495  97.7310 170.1494 0018201  74.6001 285.7234 15.04716941103264
BY70-3                  
1 46839U 20079N   22229.20103931  .00020093  00000+0  43803-3 0  9998
2 46839  97.1943 300.5814 0006902 110.7348 334.2465 15.44256313 99613
RADFXSAT-2 (AO-109)     
1 47311U 21002C   22228.30231829  .00007084  00000+0  28058-3 0  9999
2 47311  60.6846 136.8162 0027172  21.0378 339.1822 15.26082324 87595
UVSQ-SAT                
1 47438U 21006AB  22228.60932982  .00004566  00000+0  23886-3 0  9990
2 47438  97.4324 286.3930 0013229  70.3161 289.9498 15.16268521 86395
DIY-1 (ARDUIQUBE)       
1 47963U 21022AH  22229.20638174  .00012195  00000+0  65395-3 0  9992
2 47963  97.5245 129.9090 0014190 285.3765  74.5899 15.15033192 76144
XW-3 (CAS-9)            
1 50466U 21131B   22229.24268503  .00000059  00000+0  33827-4 0  9996
2 50466  98.5785 306.4626 0003785 342.4434  17.6621 14.38515391 33659
TEVEL-3                 
1 50988U 22002E   22229.13414626  .00005260  00000+0  28448-3 0  9991
2 50988  97.4770 295.1174 0008967 204.5632 209.9625 15.15065483 32609
TEVEL-8                 
1 50989U 22002F   22229.14249605  .00005221  00000+0  28276-3 0  9992
2 50989  97.4788 295.1505 0009241 203.2856 217.5280 15.15012508 32609
TEVEL-5                 
1 50998U 22002Q   22229.13569171  .00005432  00000+0  28954-3 0  9991
2 50998  97.4770 295.2469 0010517 201.2807 213.4607 15.15555441 32619
TEVEL-6                 
1 50999U 22002R   22229.13522769  .00005416  00000+0  28864-3 0  9996
2 50999  97.4767 295.2447 0010497 200.9976 214.0334 15.15559714 32613
TEVEL-1                 
1 51013U 22002AF  22229.13754385  .00005211  00000+0  28208-3 0  9990
2 51013  97.4778 295.0997 0008832 204.4931 211.1472 15.15039512 32600
TEVEL-7                 
1 51062U 22002CG  22229.14386102  .00005258  00000+0  28482-3 0  9998
2 51062  97.4786 295.1383 0009092 202.4316 216.6963 15.15004289 32605
TEVEL-4                 
1 51063U 22002CH  22229.21359593  .00005238  00000+0  28385-3 0  9991
2 51063  97.4789 295.2036 0008993 202.8912 231.9562 15.14995747 32613
TEVEL-2                 
1 51069U 22002CP  22229.13626226  .00005248  00000+0  28388-3 0  9992
2 51069  97.4766 295.1053 0008847 205.1190 213.8378 15.15057786 32600
RS3S                    
1 53308U 98067TT  22229.03318854  .00034615  00000+0  57434-3 0  9992
2 53308  51.6420  35.0073 0002534 121.8595 238.2642 15.51782930  4161
RS1S                    
1 53309U 98067TU  22228.96821469  .00035052  00000+0  58047-3 0  9992
2 53309  51.6417  35.3225 0003149 138.4348 221.6882 15.51829385  4105
RS5S                    
1 53310U 98067TV  22228.96829917  .00033296  00000+0  55279-3 0  9992
2 53310  51.6423  35.3242 0002844 139.1681 220.9522 15.51784554  4136
RS6S                    
1 53311U 98067TW  22228.96698925  .00037912  00000+0  62434-3 0  9996
2 53311  51.6417  35.3145 0002267 114.1048 246.0179 15.51949478  4158
RS9S                    
1 53312U 98067TX  22229.03172419  .00035676  00000+0  58938-3 0  9990
2 53312  51.6421  34.9969 0003322 141.4768 218.6459 15.51887727  4107
RS12S                   
1 53313U 98067TY  22229.03098895  .00036396  00000+0  59993-3 0  9998
2 53313  51.6421  34.9924 0002831 146.9883 213.1284 15.51941815  4151
RS4S                    
1 53321U 98067TZ  22229.09802369  .00035766  00000+0  59322-3 0  9998
2 53321  51.6424  34.6914 0002653 130.0654 230.0568 15.51777437  4162
RS29S (SXC3-2110 CYCLO*)
1 53373U 22096D   22229.04966129  .00006555  00000+0  26956-3 0  9995
2 53373  97.4353 130.4596 0002990 121.4234 238.7296 15.24493680  1188
RS32S (SXC3-212 MONITO*)
1 53374U 22096E   22229.18040177  .00006380  00000+0  26162-3 0  9992
2 53374  97.4352 130.5906 0003253 116.6587 243.4984 15.24599258  1202
RS34S (SXC3-218 KUZBAS*)
1 53375U 22096F   22229.24589922  .00005482  00000+0  22510-3 0  9991
2 53375  97.4352 130.6559 0003265 116.1018 244.0556 15.24619894  1217
RS23S (SXC3-21 UTMN)    
1 53376U 22096G   22229.24573100  .00006075  00000+0  24886-3 0  9990
2 53376  97.4352 130.6561 0003260 114.1277 246.0302 15.24654893  1210
RS28S (SXC3-214 MIET-A*)
1 53377U 22096H   22229.17993634  .00005692  00000+0  23317-3 0  9993
2 53377  97.4353 130.5913 0003311 114.5719 245.5864 15.24682324  1200
RS26S (KAI-1)           
1 53378U 22096J   22229.17972010  .00005280  00000+0  21625-3 0  9992
2 53378  97.4353 130.5915 0003342 109.2584 250.9016 15.24721264  1204
RS19S (SXC3-219 ISOI)   
1 53381U 22096M   22229.17766577  .00005875  00000+0  23734-3 0  9998
2 53381  97.4353 130.5942 0005967  73.2229 286.9663 15.25124228  1204
RS21S (CUBESX-HSE-2)    
1 53383U 22096P   22229.17734317  .00005639  00000+0  22751-3 0  9993
2 53383  97.4353 130.5947 0006126  72.2286 287.9620 15.25184876  1200
RS30S (SXC3-217 SIREN)  
1 53384U 22096Q   22229.24282411  .00005406  00000+0  21812-3 0  9994
2 53384  97.4352 130.6601 0006197  71.3653 288.8257 15.25206131  1210
RS20S (GEOSCAN-EDELVEIS)
1 53385U 22096R   22229.17649188  .00006458  00000+0  25879-3 0  9990
2 53385  97.4352 130.5958 0006704  71.9904 288.2064 15.25356968  1230
RS33S (SXC3-215 VIZARD) 
1 53386U 22096S   22229.17544388  .00007673  00000+0  30487-3 0  9998
2 53386  97.4353 130.5972 0007484  71.8058 288.3994 15.25571729  1229
